GLOBALSTAR M004 [-]     
1 25163U 98008B   23242.34935817 -.00000070  00000+0  18615-3 0  9996
2 25163  51.9972 257.9182 0002852 270.4068 193.1565 12.63336935178760
GLOBALSTAR M002 [-]     
1 25164U 98008C   23241.76897759 -.00000091  00000+0 -29030-3 0  9991
2 25164  52.0012  88.5475 0002009  37.0561 323.0397 11.61495174107677
GLOBALSTAR M003 [-]     
1 25165U 98008D   23242.09421442  .00000032  00000+0  12951-2 0  9997
2 25165  51.9716 188.5596 0008172  51.3146  33.8213 12.11932834153632
GLOBALSTAR M014 [-]     
1 25306U 98023A   23242.32525854 -.00000064  00000+0  24731-3 0  9995
2 25306  51.9865  24.1820 0000583 171.1578 198.4871 11.65459222114578
GLOBALSTAR M006 [-]     
1 25307U 98023B   23242.41470132 -.00000068  00000+0  14807-3 0  9991
2 25307  51.9950  51.8823 0003807  20.4520 352.7608 11.58153243140847
GLOBALSTAR M015 [-]     
1 25308U 98023C   23242.09011424 -.00000065  00000+0  20373-3 0  9993
2 25308  51.9810 121.0606 0012747 351.8000 158.1100 11.48848946118939
GLOBALSTAR M008 [-]     
1 25309U 98023D   23242.11557774 -.00000048  00000+0  37753-3 0  9991
2 25309  51.9977 303.0022 0002453 220.1833 151.4307 12.36026606156906
